{
  "type": "FeatureCollection",
  "features": [
    {
      "type": "Feature",
      "properties": {
        "norad_id": 34350,
        "name": "IRIDIUM 33 DEB",
        "group": "iridium-33-debris",
        "lat": 41.799394449854034,
        "lon": 3.1870476158903913,
        "alt_km": 732.3458293884632,
        "timestamp": "2025-12-19T10:50:01.586460+00:00",
        "meta_object_name": "IRIDIUM 33 DEB",
        "meta_object_id": "1997-051ES",
        "meta_epoch": "2025-12-18T12:05:02.649696",
        "meta_mean_motion": 14.45400034,
        "meta_eccentricity": 0.00232374,
        "meta_inclination": 86.3272,
        "meta_ra_of_asc_node": 0.306,
        "meta_arg_of_pericenter": 117.4224,
        "meta_mean_anomaly": 35.6002,
        "meta_ephemeris_type": 0,
        "meta_classification_type": "U",
        "meta_norad_cat_id": 34350,
        "meta_element_set_no": 999,
        "meta_rev_at_epoch": 88376,
        "meta_bstar": 0.0002607708,
        "meta_mean_motion_dot": 9.4e-06,
        "meta_mean_motion_ddot": 0,
        "tle_line1": "1 34350U 97051ES  25352.50350289  .00000940  00000+0  26077-3 0  9993",
        "tle_line2": "2 34350  86.3272   0.3060 0023237 117.4224  35.6002 14.45400034883765"
      },
      "geometry": {
        "type": "Point",
        "coordinates": [
          3.1870476158903913,
          41.799394449854034
        ]
      }
    },
    {
      "type": "Feature",
      "properties": {
        "norad_id": 34366,
        "name": "IRIDIUM 33 DEB",
        "group": "iridium-33-debris",
        "lat": -40.14972252933817,
        "lon": -130.53516342705345,
        "alt_km": 722.1217377897492,
        "timestamp": "2025-12-19T10:50:01.586470+00:00",
        "meta_object_name": "IRIDIUM 33 DEB",
        "meta_object_id": "1997-051FJ",
        "meta_epoch": "2025-12-18T14:34:32.858400",
        "meta_mean_motion": 14.54103617,
        "meta_eccentricity": 0.00228949,
        "meta_inclination": 86.3697,
        "meta_ra_of_asc_node": 46.7619,
        "meta_arg_of_pericenter": 121.3306,
        "meta_mean_anomaly": 2.8167,
        "meta_ephemeris_type": 0,
        "meta_classification_type": "U",
        "meta_norad_cat_id": 34366,
        "meta_element_set_no": 999,
        "meta_rev_at_epoch": 88267,
        "meta_bstar": 0.00070491505,
        "meta_mean_motion_dot": 3.008e-05,
        "meta_mean_motion_ddot": 0,
        "tle_line1": "1 34366U 97051FJ  25352.60732475  .00003008  00000+0  70492-3 0  9990",
        "tle_line2": "2 34366  86.3697  46.7619 0022894 121.3306   2.8167 14.54103617882674"
      },
      "geometry": {
        "type": "Point",
        "coordinates": [
          -130.53516342705345,
          -40.14972252933817
        ]
      }
    },
    {
      "type": "Feature",
      "properties": {
        "norad_id": 34375,
        "name": "IRIDIUM 33 DEB",
        "group": "iridium-33-debris",
        "lat": -16.754454971936426,
        "lon": 178.91828419086053,
        "alt_km": 876.4708865458988,
        "timestamp": "2025-12-19T10:50:01.586481+00:00",
        "meta_object_name": "IRIDIUM 33 DEB",
        "meta_object_id": "1997-051FT",
        "meta_epoch": "2025-12-18T13:09:00.260352",
        "meta_mean_motion": 14.18002809,
        "meta_eccentricity": 0.01036066,
        "meta_inclination": 86.432,
        "meta_ra_of_asc_node": 180.3588,
        "meta_arg_of_pericenter": 108.552,
        "meta_mean_anomaly": 306.522,
        "meta_ephemeris_type": 0,
        "meta_classification_type": "U",
        "meta_norad_cat_id": 34375,
        "meta_element_set_no": 999,
        "meta_rev_at_epoch": 86794,
        "meta_bstar": 0.0003387918,
        "meta_mean_motion_dot": 7.51e-06,
        "meta_mean_motion_ddot": 0,
        "tle_line1": "1 34375U 97051FT  25352.54791968  .00000751  00000+0  33879-3 0  9995",
        "tle_line2": "2 34375  86.4320 180.3588 0103606 108.5520 306.5220 14.18002809867942"
      },
      "geometry": {
        "type": "Point",
        "coordinates": [
          178.91828419086053,
          -16.754454971936426
        ]
      }
    },
    {
      "type": "Feature",
      "properties": {
        "norad_id": 34376,
        "name": "IRIDIUM 33 DEB",
        "group": "iridium-33-debris",
        "lat": -7.075492818187231,
        "lon": 3.062088400182008,
        "alt_km": 705.873550788232,
        "timestamp": "2025-12-19T10:50:01.586491+00:00",
        "meta_object_name": "IRIDIUM 33 DEB",
        "meta_object_id": "1997-051FU",
        "meta_epoch": "2025-12-18T18:26:49.224192",
        "meta_mean_motion": 14.62646998,
        "meta_eccentricity": 0.0027911,
        "meta_inclination": 86.2978,
        "meta_ra_of_asc_node": 3.8295,
        "meta_arg_of_pericenter": 146.7252,
        "meta_mean_anomaly": 213.5722,
        "meta_ephemeris_type": 0,
        "meta_classification_type": "U",
        "meta_norad_cat_id": 34376,
        "meta_element_set_no": 999,
        "meta_rev_at_epoch": 88095,
        "meta_bstar": 0.001031725,
        "meta_mean_motion_dot": 5.297e-05,
        "meta_mean_motion_ddot": 0,
        "tle_line1": "1 34376U 97051FU  25352.76862528  .00005297  00000+0  10317-2 0  9992",
        "tle_line2": "2 34376  86.2978   3.8295 0027911 146.7252 213.5722 14.62646998880956"
      },
      "geometry": {
        "type": "Point",
        "coordinates": [
          3.062088400182008,
          -7.075492818187231
        ]
      }
    },
    {
      "type": "Feature",
      "properties": {
        "norad_id": 34486,
        "name": "IRIDIUM 33 DEB",
        "group": "iridium-33-debris",
        "lat": -65.75054367345066,
        "lon": 0.8764122775776333,
        "alt_km": 595.3190632902142,
        "timestamp": "2025-12-19T10:50:01.586502+00:00",
        "meta_object_name": "IRIDIUM 33 DEB",
        "meta_object_id": "1997-051GB",
        "meta_epoch": "2025-12-18T13:12:33.232032",
        "meta_mean_motion": 14.96051759,
        "meta_eccentricity": 0.00138921,
        "meta_inclination": 86.3929,
        "meta_ra_of_asc_node": 9.3426,
        "meta_arg_of_pericenter": 95.5939,
        "meta_mean_anomaly": 28.9882,
        "meta_ephemeris_type": 0,
        "meta_classification_type": "U",
        "meta_norad_cat_id": 34486,
        "meta_element_set_no": 999,
        "meta_rev_at_epoch": 89073,
        "meta_bstar": 0.0017069689,
        "meta_mean_motion_dot": 0.00019258,
        "meta_mean_motion_ddot": 0,
        "tle_line1": "1 34486U 97051GB  25352.55038463  .00019258  00000+0  17070-2 0  9999",
        "tle_line2": "2 34486  86.3929   9.3426 0013892  95.5939  28.9882 14.96051759890732"
      },
      "geometry": {
        "type": "Point",
        "coordinates": [
          0.8764122775776333,
          -65.75054367345066
        ]
      }
    },
    {
      "type": "Feature",
      "properties": {
        "norad_id": 34487,
        "name": "IRIDIUM 33 DEB",
        "group": "iridium-33-debris",
        "lat": 62.48862432400987,
        "lon": -177.56570955224012,
        "alt_km": 718.6117233416016,
        "timestamp": "2025-12-19T10:50:01.586512+00:00",
        "meta_object_name": "IRIDIUM 33 DEB",
        "meta_object_id": "1997-051GC",
        "meta_epoch": "2025-12-18T07:45:56.041056",
        "meta_mean_motion": 14.43223269,
        "meta_eccentricity": 0.00331222,
        "meta_inclination": 86.3431,
        "meta_ra_of_asc_node": 9.9731,
        "meta_arg_of_pericenter": 110.9986,
        "meta_mean_anomaly": 270.0816,
        "meta_ephemeris_type": 0,
        "meta_classification_type": "U",
        "meta_norad_cat_id": 34487,
        "meta_element_set_no": 999,
        "meta_rev_at_epoch": 88329,
        "meta_bstar": 0.00015301486,
        "meta_mean_motion_dot": 5.38e-06,
        "meta_mean_motion_ddot": 0,
        "tle_line1": "1 34487U 97051GC  25352.32356529  .00000538  00000+0  15301-3 0  9998",
        "tle_line2": "2 34487  86.3431   9.9731 0033122 110.9986 270.0816 14.43223269883297"
      },
      "geometry": {
        "type": "Point",
        "coordinates": [
          -177.56570955224012,
          62.48862432400987
        ]
      }
    },
    {
      "type": "Feature",
      "properties": {
        "norad_id": 34488,
        "name": "IRIDIUM 33 DEB",
        "group": "iridium-33-debris",
        "lat": 25.08577713298592,
        "lon": -55.791869341249544,
        "alt_km": 464.49843066170524,
        "timestamp": "2025-12-19T10:50:01.586523+00:00",
        "meta_object_name": "IRIDIUM 33 DEB",
        "meta_object_id": "1997-051GD",
        "meta_epoch": "2025-12-18T20:36:21.699936",
        "meta_mean_motion": 15.30898743,
        "meta_eccentricity": 0.00115528,
        "meta_inclination": 86.3236,
        "meta_ra_of_asc_node": 302.7776,
        "meta_arg_of_pericenter": 41.1127,
        "meta_mean_anomaly": 319.099,
        "meta_ephemeris_type": 0,
        "meta_classification_type": "U",
        "meta_norad_cat_id": 34488,
        "meta_element_set_no": 999,
        "meta_rev_at_epoch": 89333,
        "meta_bstar": 0.0035214405,
        "meta_mean_motion_dot": 0.0010661,
        "meta_mean_motion_ddot": 0,
        "tle_line1": "1 34488U 97051GD  25352.85858449  .00106610  00000+0  35214-2 0  9997",
        "tle_line2": "2 34488  86.3236 302.7776 0011552  41.1127 319.0990 15.30898743893334"
      },
      "geometry": {
        "type": "Point",
        "coordinates": [
          -55.791869341249544,
          25.08577713298592
        ]
      }
    }
  ]
}